OPS 6582 (TRANSIT 5B-5) 
1 00965U 64083D   23241.83816741  .00000056  00000+0  65280-4 0  9996
2 00965  90.0383 196.9621 0042335  29.9975  31.4397 13.56834953904969
OSCAR 7 (AO-7)          
1 07530U 74089B   23241.84255164 -.00000027  00000+0  12071-3 0  9993
2 07530 101.9539 229.0310 0011849 283.8342 139.7144 12.53666483232409
UOSAT 2 (UO-11)         
1 14781U 84021B   23241.83859142  .00001605  00000+0  19333-3 0  9991
2 14781  97.6644 215.9532 0007144 330.7524  29.3291 14.85176448105073
NOAA 9                  
1 15427U 84123A   23241.88143286  .00000170  00000+0  10890-3 0  9997
2 15427  99.0961 227.5110 0015041   7.7795  50.5160 14.16402967998675
LUSAT (LO-19)           
1 20442U 90005G   23241.81994202  .00000210  00000+0  93164-4 0  9992
2 20442  98.8510 219.9332 0011088 328.0558  31.9952 14.33304309755896
ITAMSAT (IO-26)         
1 22826U 93061D   23241.71432221  .00000151  00000+0  75181-4 0  9995
2 22826  98.8301 285.6314 0008729 192.2228 167.8744 14.30702344561076
RADIO ROSTO (RS-15)     
1 23439U 94085A   23241.79190571 -.00000055  00000+0 -34863-3 0  9996
2 23439  64.8165 156.6445 0160331 197.2793 162.2634 11.27575502180622
JAS-2 (FO-29)           
1 24278U 96046B   23241.83466217  .00000006  00000+0  43270-4 0  9992
2 24278  98.5359 210.3793 0349404 225.7592 131.4374 13.53152779334898
NOAA 15                 
1 25338U 98030A   23241.81282475  .00000215  00000+0  10733-3 0  9994
2 25338  98.6027 269.5989 0011561  98.5892 261.6599 14.26379708315507
TECHSAT 1B (GO-32)      
1 25397U 98043D   23241.86298497  .00000100  00000+0  63432-4 0  9997
2 25397  98.8751 199.9770 0000395 341.3310  18.7853 14.23902586305819
ISS (ZARYA)             
1 25544U 98067A   23242.15165155  .00020663  00000+0  36781-3 0  9996
2 25544  51.6425 322.1283 0004914  11.6648  71.0185 15.50090580413261
ORSTED                  
1 25635U 99008B   23241.78266775  .00001071  00000+0  25802-3 0  9995
2 25635  96.4732   9.0038 0135718 220.6804 138.4197 14.49183500293744
PHASE 3D (AO-40)        
1 26609U 00072B   23234.64325500 -.00000287  00000+0  00000+0 0  9997
2 26609   6.1930 169.7587 7914846 190.4960 127.4270  1.25587428104577
PCSAT (NO-44)           
1 26931U 01043C   23241.72975357  .00000200  00000+0  10727-3 0  9997
2 26931  67.0531   6.9249 0007610 261.2027  98.8213 14.30970750144106
SAUDISAT 1C (SO-50)     
1 27607U 02058C   23241.74336657  .00001788  00000+0  26197-3 0  9991
2 27607  64.5549  39.3840 0061500 209.2627 150.5027 14.77533204113094
CUTE-1 (CO-55)          
1 27844U 03031E   23241.59606970  .00000381  00000+0  18896-3 0  9992
2 27844  98.6798 247.7843 0008514 273.5606  86.4599 14.22857049 46177
CUBESAT XI-IV (CO-57)   
1 27848U 03031J   23241.84371910  .00000325  00000+0  16568-3 0  9999
2 27848  98.6835 248.4153 0008514 290.4506  69.5758 14.22357588 45971
MOZHAYETS 4 (RS-22)     
1 27939U 03042A   23241.86707150  .00001392  00000+0  24810-3 0  9997
2 27939  98.2532  29.4304 0011251 263.3283 241.5955 14.68612899 65220
INMARSAT 4-F1           
1 28628U 05009A   23241.85233135 -.00000273  00000+0  00000+0 0  9993
2 28628   3.9749  39.0598 0003005 126.4731 262.6072  1.00270833 67424
NOAA 18                 
1 28654U 05018A   23241.85245945  .00000229  00000+0  14642-3 0  9995
2 28654  98.9056 315.8745 0014611 167.6874 192.4658 14.12995417941887
CUBESAT XI-V            
1 28895U 05043F   23241.59061117  .00001831  00000+0  34293-3 0  9992
2 28895  98.1629  13.1389 0015901 197.0384 163.0288 14.65936468951568
METOP-A                 
1 29499U 06044A   23241.85392682  .00002030  00000+0  26807-3 0  9992
2 29499  98.3949 304.3441 0194386  71.2112 349.0074 14.68888174874990
CARTOSAT-2 (IRS-P7)     
1 29710U 07001B   23241.88140467  .00042485  00000+0  46009-3 0  9991
2 29710  97.9001  26.8509 0083871 292.0043  67.2317 15.59071247903766
CAPE-1                  
1 31130U 07012P   23241.84189189  .00002156  00000+0  44628-3 0  9998
2 31130  98.3109 185.9233 0093316  15.2767 345.1216 14.58629172868965
CARTOSAT-2A             
1 32783U 08021A   23241.84865561  .00000963  00000+0  13828-3 0  9991
2 32783  97.9102 301.0963 0012402 182.2322 177.8836 14.78669209827711
CUTE-1.7+APD II (CO-65) 
1 32785U 08021C   23241.73939790  .00003208  00000+0  31465-3 0  9999
2 32785  97.7122 206.1730 0010823 211.0251 149.0330 14.92881199831790
COMPASS-1               
1 32787U 08021E   23241.47086193  .00008461  00000+0  63917-3 0  9995
2 32787  97.5906 216.3249 0014700 119.1159 241.1540 15.02542592833658
AAUSAT-II               
1 32788U 08021F   23241.83502644  .00010782  00000+0  75378-3 0  9993
2 32788  97.5641 219.7111 0009973 101.9656 258.2689 15.05439552834183
DELFI-C3 (DO-64)        
1 32789U 08021G   23241.82915436  .00092819  00000+0  17627-2 0  9993
2 32789  97.2964 263.3479 0006886 172.5563 187.5790 15.47926136838739
SEEDS II (CO-66)        
1 32791U 08021J   23241.45626708  .00005823  00000+0  50218-3 0  9999
2 32791  97.6607 211.2221 0012673 157.3960 202.7823 14.97609224832629
YUBILEINY (RS-30)       
1 32953U 08025A   23241.84512662  .00000043  00000+0  23883-3 0  9996
2 32953  82.4985 271.2808 0019901  27.7164 332.4972 12.43128330692661
FENGYUN 3A              
1 32958U 08026A   23241.83159430  .00000142  00000+0  88570-4 0  9996
2 32958  98.5606 193.0938 0008348 188.9908 171.1120 14.18907500790387
PRISM (HITOMI)          
1 33493U 09002B   23241.54401816  .00010661  00000+0  69337-3 0  9998
2 33493  98.2438 261.2871 0016675 155.4351 204.7673 15.08081229794795
STARS (KUKAI)           
1 33498U 09002G   23241.79252502  .00002724  00000+0  34616-3 0  9999
2 33498  98.1277 145.8361 0008558 278.2668  81.7574 14.82478055786317
KKS-1 (KISEKI)          
1 33499U 09002H   23241.82253133  .00001381  00000+0  20206-3 0  9993
2 33499  98.1625 135.0575 0008731   1.2943 358.8288 14.77298319784939
NOAA 19                 
1 33591U 09005A   23241.83543812  .00000214  00000+0  13983-3 0  9994
2 33591  99.0940 288.9189 0014412  39.5340 320.6880 14.12811404750088
SWISSCUBE               
1 35932U 09051B   23241.56218387  .00001035  00000+0  23638-3 0  9992
2 35932  98.5104 113.6294 0008222 132.9767 227.2122 14.57909564739902
BEESAT-1                
1 35933U 09051C   23241.46064054  .00000893  00000+0  20574-3 0  9999
2 35933  98.5030 114.7781 0006272 142.2951 217.8687 14.57794469739969
ITUPSAT1                
1 35935U 09051E   23241.61761623  .00000822  00000+0  19423-3 0  9997
2 35935  98.5129 114.8560 0008425 149.8354 210.3330 14.56831439739655
XIWANG-1 (HOPE-1)       
1 36122U 09072B   23241.80806122 -.00000048  00000+0 -11701-4 0  9998
2 36122 100.2448 203.3835 0008150  56.6755 303.5138 13.16386438658484
CARTOSAT-2B             
1 36795U 10035A   23241.81820038  .00000905  00000+0  13029-3 0  9992
2 36795  97.9046 300.9118 0011890 264.0987  95.8869 14.78705229708762
TISAT 1                 
1 36799U 10035E   23241.62025043  .00004086  00000+0  35939-3 0  9996
2 36799  98.1263 114.1288 0012665  90.2015 270.0657 14.97067311713217
FENGYUN 3B              
1 37214U 10059A   23241.85674859  .00000105  00000+0  78814-4 0  9993
2 37214  99.0832 260.4682 0021915 195.7292 288.4159 14.14369633662888
JUGNU                   
1 37839U 11058B   23241.48729118  .00000489  00000+0  11775-3 0  9991
2 37839  19.9621  38.1915 0018832 307.7799  88.6385 14.12998201614164
SRMSAT                  
1 37841U 11058D   23241.36564789  .00000458  00000+0  10648-3 0  9996
2 37841  19.9715 127.5676 0011960 116.2453  39.4534 14.10933449613152
M-CUBED & EXP-1 PRIME   
1 37855U 11061F   23241.51013749  .00021045  00000+0  59332-3 0  9995
2 37855 101.7091 244.8122 0110638 174.2614 185.9908 15.30527044647767
HORYU-2                 
1 38340U 12025D   23241.81235758  .00002606  00000+0  35996-3 0  9997
2 38340  98.1705 331.6156 0009562 258.9051 101.1084 14.78995378596979
METOP-B                 
1 38771U 12049A   23241.91770833  .00000134  00000+0  81284-4 0  9996
2 38771  98.6727 300.0383 0001245 105.8728 232.5702 14.21507167568023
SARAL                   
1 39086U 13009A   23241.87239200  .00000141  00000+0  68571-4 0  9998
2 39086  98.5497  66.0964 0003038  75.7447 284.4074 14.32251454549232
AAUSAT 3                
1 39087U 13009B   23241.81504264  .00000751  00000+0  26791-3 0  9992
2 39087  98.3801  75.0098 0013038  42.0525 318.1660 14.36930144550189
STRAND-1                
1 39090U 13009E   23241.53209556  .00000360  00000+0  13924-3 0  9991
2 39090  98.3877  72.8793 0009899  50.7215 309.4848 14.35669998550248
BRITE-AUSTRIA           
1 39091U 13009F   23241.46743111  .00000228  00000+0  93804-4 0  9993
2 39091  98.3909  72.0541 0011447  56.6994 303.5287 14.35533803550268
UNIBRITE                
1 39092U 13009G   23241.52828093  .00000238  00000+0  97812-4 0  9998
2 39092  98.3947  71.9664 0010300  52.7853 307.4271 14.35407011550226
SOMP                    
1 39134U 13015E   23241.78369037  .01833569  28707-2  17341-2 0  9994
2 39134  64.8282  25.1634 0021227 282.9875  76.8927 16.11818744574598
BEESAT-3                
1 39135U 13015F   23241.81331635  .00054245  00000+0  93391-3 0  9990
2 39135  64.8541  88.6093 0017917 246.2125 113.7139 15.50586379573326
BEESAT-2                
1 39136U 13015G   23241.90494283  .00040965  00000+0  81833-3 0  9992
2 39136  64.8649 101.3423 0027687 263.3163  96.4826 15.46176881573051
NEE-01 PEGASO           
1 39151U 13018B   23241.26154282  .00002584  00000+0  32271-3 0  9990
2 39151  98.0144 351.5963 0014679 274.4005  85.5531 14.83182552558518
CUBEBUG-1 (CAPITAN BETO)
1 39153U 13018D   23241.54106141  .00003132  00000+0  37931-3 0  9992
2 39153  98.0456 358.3268 0014474 266.4804  93.4754 14.84323242558676
ESTCUBE 1               
1 39161U 13021C   23241.78276352  .00001783  00000+0  27454-3 0  9992
2 39161  97.8670 311.9551 0010634  94.1005 266.1420 14.74617036553976
